{"type": "FeatureCollection", "features": [ {"type": "Feature", "properties": {"norad_id": 30283, "name": "FENGYUN 1C DEB", "group": "fengyun-1c-debris", "lat": 54.66745558020846, "lon": -37.288358619938975, "alt_km": 747.2031200757265, "timestamp": "2025-12-07T14:37:05.479874+00:00", "meta": {"OBJECT_NAME": "FENGYUN 1C DEB", "OBJECT_ID": "1999-025YU", "EPOCH": "2025-12-06T23:11:49.944192", "MEAN_MOTION": 14.01972733, "ECCENTRICITY": 0.01852308, "INCLINATION": 98.8672, "RA_OF_ASC_NODE": 334.808, "ARG_OF_PERICENTER": 59.2991, "MEAN_ANOMALY": 355.3054, "EPHEMERIS_TYPE": 0, "CLASSIFICATION_TYPE": "U", "NORAD_CAT_ID": 30283, "ELEMENT_SET_NO": 999, "REV_AT_EPOCH": 96610, "BSTAR": 0.00010457646, "MEAN_MOTION_DOT": 1.43e-06, "MEAN_MOTION_DDOT": 0}, "tle": {"line1": "1 30283U 99025YU  25340.96655028  .00000143  00000+0  10458-3 0  9994", "line2": "2 30283  98.8672 334.8080 0185230  59.2991 355.3054 14.01972733966102"}}, "geometry": {"type": "Point", "coordinates": [-37.288358619938975, 54.66745558020846]}}, {"type": "Feature", "properties": {"norad_id": 30284, "name": "FENGYUN 1C DEB", "group": "fengyun-1c-debris", "lat": 36.547295066667495, "lon": -123.4149944146415, "alt_km": 767.6763996082254, "timestamp": "2025-12-07T14:37:05.479885+00:00", "meta": {"OBJECT_NAME": "FENGYUN 1C DEB", "OBJECT_ID": "1999-025YV", "EPOCH": "2025-12-06T16:48:45.073152", "MEAN_MOTION": 14.28698372, "ECCENTRICITY": 0.00380272, "INCLINATION": 98.7206, "RA_OF_ASC_NODE": 49.1442, "ARG_OF_PERICENTER": 126.1531, "MEAN_ANOMALY": 26.1434, "EPHEMERIS_TYPE": 0, "CLASSIFICATION_TYPE": "U", "NORAD_CAT_ID": 30284, "ELEMENT_SET_NO": 999, "REV_AT_EPOCH": 97429, "BSTAR": 0.002640684, "MEAN_MOTION_DOT": 6.654e-05, "MEAN_MOTION_DDOT": 0}, "tle": {"line1": "1 30284U 99025YV  25340.70052168  .00006654  00000+0  26407-2 0  9996", "line2": "2 30284  98.7206  49.1442 0038027 126.1531  26.1434 14.28698372974295"}}, "geometry": {"type": "Point", "coordinates": [-123.4149944146415, 36.547295066667495]}}, {"type": "Feature", "properties": {"norad_id": 30286, "name": "FENGYUN 1C DEB", "group": "fengyun-1c-debris", "lat": 31.133037127791706, "lon": 171.42450366529292, "alt_km": 801.6929761877791, "timestamp": "2025-12-07T14:37:05.479895+00:00", "meta": {"OBJECT_NAME": "FENGYUN 1C DEB", "OBJECT_ID": "1999-025YX", "EPOCH": "2025-12-06T22:56:50.639424", "MEAN_MOTION": 14.12720328, "ECCENTRICITY": 0.0064481, "INCLINATION": 98.69, "RA_OF_ASC_NODE": 345.4905, "ARG_OF_PERICENTER": 149.0592, "MEAN_ANOMALY": 280.3873, "EPHEMERIS_TYPE": 0, "CLASSIFICATION_TYPE": "U", "NORAD_CAT_ID": 30286, "ELEMENT_SET_NO": 999, "REV_AT_EPOCH": 97377, "BSTAR": 0.00015643649, "MEAN_MOTION_DOT": 2.54e-06, "MEAN_MOTION_DDOT": 0}, "tle": {"line1": "1 30286U 99025YX  25340.95614166  .00000254  00000+0  15644-3 0  9999", "line2": "2 30286  98.6900 345.4905 0064481 149.0592 280.3873 14.12720328973770"}}, "geometry": {"type": "Point", "coordinates": [171.42450366529292, 31.133037127791706]}}, {"type": "Feature", "properties": {"norad_id": 30287, "name": "FENGYUN 1C DEB", "group": "fengyun-1c-debris", "lat": 75.24209345559647, "lon": -128.41246207044227, "alt_km": 911.9921586294786, "timestamp": "2025-12-07T14:37:05.479906+00:00", "meta": {"OBJECT_NAME": "FENGYUN 1C DEB", "OBJECT_ID": "1999-025YY", "EPOCH": "2025-12-06T15:54:10.985760", "MEAN_MOTION": 13.68562899, "ECCENTRICITY": 0.04136636, "INCLINATION": 98.6379, "RA_OF_ASC_NODE": 15.495, "ARG_OF_PERICENTER": 28.4761, "MEAN_ANOMALY": 88.3884, "EPHEMERIS_TYPE": 0, "CLASSIFICATION_TYPE": "U", "NORAD_CAT_ID": 30287, "ELEMENT_SET_NO": 999, "REV_AT_EPOCH": 93775, "BSTAR": 0.0017654235, "MEAN_MOTION_DOT": 2.721e-05, "MEAN_MOTION_DDOT": 0}, "tle": {"line1": "1 30287U 99025YY  25340.66262715  .00002721  00000+0  17654-2 0  9990", "line2": "2 30287  98.6379  15.4950 0413663  28.4761  88.3884 13.68562899937756"}}, "geometry": {"type": "Point", "coordinates": [-128.41246207044227, 75.24209345559647]}}, {"type": "Feature", "properties": {"norad_id": 30288, "name": "FENGYUN 1C DEB", "group": "fengyun-1c-debris", "lat": -78.48870316973945, "lon": 117.22512932175118, "alt_km": 783.6190681398875, "timestamp": "2025-12-07T14:37:05.479916+00:00", "meta": {"OBJECT_NAME": "FENGYUN 1C DEB", "OBJECT_ID": "1999-025YZ", "EPOCH": "2025-12-06T19:27:31.459392", "MEAN_MOTION": 14.32499958, "ECCENTRICITY": 0.0020242, "INCLINATION": 99.3957, "RA_OF_ASC_NODE": 61.9683, "ARG_OF_PERICENTER": 340.1343, "MEAN_ANOMALY": 142.1483, "EPHEMERIS_TYPE": 0, "CLASSIFICATION_TYPE": "U", "NORAD_CAT_ID": 30288, "ELEMENT_SET_NO": 999, "REV_AT_EPOCH": 97484, "BSTAR": 0.0030481501, "MEAN_MOTION_DOT": 8.238e-05, "MEAN_MOTION_DDOT": 0}, "tle": {"line1": "1 30288U 99025YZ  25340.81078078  .00008238  00000+0  30482-2 0  9998", "line2": "2 30288  99.3957  61.9683 0020242 340.1343 142.1483 14.32499958974845"}}, "geometry": {"type": "Point", "coordinates": [117.22512932175118, -78.48870316973945]}}, {"type": "Feature", "properties": {"norad_id": 30289, "name": "FENGYUN 1C DEB", "group": "fengyun-1c-debris", "lat": 8.171731159268635, "lon": -100.70224780296532, "alt_km": 834.2372847688985, "timestamp": "2025-12-07T14:37:05.479926+00:00", "meta": {"OBJECT_NAME": "FENGYUN 1C DEB", "OBJECT_ID": "1999-025ZA", "EPOCH": "2025-12-06T19:52:43.245120", "MEAN_MOTION": 14.25744262, "ECCENTRICITY": 0.00370758, "INCLINATION": 98.9274, "RA_OF_ASC_NODE": 77.2095, "ARG_OF_PERICENTER": 347.9633, "MEAN_ANOMALY": 138.2696, "EPHEMERIS_TYPE": 0, "CLASSIFICATION_TYPE": "U", "NORAD_CAT_ID": 30289, "ELEMENT_SET_NO": 999, "REV_AT_EPOCH": 96997, "BSTAR": 0.0032261481, "MEAN_MOTION_DOT": 7.677e-05, "MEAN_MOTION_DDOT": 0}, "tle": {"line1": "1 30289U 99025ZA  25340.82827830  .00007677  00000+0  32261-2 0  9991", "line2": "2 30289  98.9274  77.2095 0037075 347.9633 138.2696 14.25744262969972"}}, "geometry": {"type": "Point", "coordinates": [-100.70224780296532, 8.171731159268635]}}, {"type": "Feature", "properties": {"norad_id": 30290, "name": "FENGYUN 1C DEB", "group": "fengyun-1c-debris", "lat": 77.02689154218176, "lon": 3.9882410538603206, "alt_km": 628.5825944963435, "timestamp": "2025-12-07T14:37:05.479936+00:00", "meta": {"OBJECT_NAME": "FENGYUN 1C DEB", "OBJECT_ID": "1999-025ZB", "EPOCH": "2025-12-06T05:47:06.963648", "MEAN_MOTION": 14.74253712, "ECCENTRICITY": 0.00164663, "INCLINATION": 102.6234, "RA_OF_ASC_NODE": 78.4708, "ARG_OF_PERICENTER": 72.3832, "MEAN_ANOMALY": 317.2566, "EPHEMERIS_TYPE": 0, "CLASSIFICATION_TYPE": "U", "NORAD_CAT_ID": 30290, "ELEMENT_SET_NO": 999, "REV_AT_EPOCH": 97783, "BSTAR": 0.0093095321, "MEAN_MOTION_DOT": 0.00062196, "MEAN_MOTION_DDOT": 0}, "tle": {"line1": "1 30290U 99025ZB  25340.24105282  .00062196  00000+0  93095-2 0  9998", "line2": "2 30290 102.6234  78.4708 0016466  72.3832 317.2566 14.74253712977836"}}, "geometry": {"type": "Point", "coordinates": [3.9882410538603206, 77.02689154218176]}}, {"type": "Feature", "properties": {"norad_id": 30291, "name": "FENGYUN 1C DEB", "group": "fengyun-1c-debris", "lat": -0.2814882293117596, "lon": 51.04897256021133, "alt_km": 777.4727009977923, "timestamp": "2025-12-07T14:37:05.479947+00:00", "meta": {"OBJECT_NAME": "FENGYUN 1C DEB", "OBJECT_ID": "1999-025ZC", "EPOCH": "2025-12-06T14:58:44.114016", "MEAN_MOTION": 14.54988868, "ECCENTRICITY": 0.01124177, "INCLINATION": 97.2328, "RA_OF_ASC_NODE": 230.2316, "ARG_OF_PERICENTER": 38.0141, "MEAN_ANOMALY": 25.223, "EPHEMERIS_TYPE": 0, "CLASSIFICATION_TYPE": "U", "NORAD_CAT_ID": 30291, "ELEMENT_SET_NO": 999, "REV_AT_EPOCH": 97619, "BSTAR": 0.0049602406, "MEAN_MOTION_DOT": 0.00023273, "MEAN_MOTION_DDOT": 0}, "tle": {"line1": "1 30291U 99025ZC  25340.62412169  .00023273  00000+0  49602-2 0  9994", "line2": "2 30291  97.2328 230.2316 0112417  38.0141  25.2230 14.54988868976195"}}, "geometry": {"type": "Point", "coordinates": [51.04897256021133, -0.2814882293117596]}}, {"type": "Feature", "properties": {"norad_id": 30293, "name": "FENGYUN 1C DEB", "group": "fengyun-1c-debris", "lat": -9.763716966531996, "lon": -9.566512118708822, "alt_km": 705.7133199402333, "timestamp": "2025-12-07T14:37:05.479957+00:00", "meta": {"OBJECT_NAME": "FENGYUN 1C DEB", "OBJECT_ID": "1999-025ZE", "EPOCH": "2025-12-06T11:22:26.185152", "MEAN_MOTION": 14.48886166, "ECCENTRICITY": 0.00766025, "INCLINATION": 99.2544, "RA_OF_ASC_NODE": 170.7977, "ARG_OF_PERICENTER": 133.2769, "MEAN_ANOMALY": 258.0104, "EPHEMERIS_TYPE": 0, "CLASSIFICATION_TYPE": "U", "NORAD_CAT_ID": 30293, "ELEMENT_SET_NO": 999, "REV_AT_EPOCH": 98886, "BSTAR": 0.0015827502, "MEAN_MOTION_DOT": 6.165e-05, "MEAN_MOTION_DDOT": 0}, "tle": {"line1": "1 30293U 99025ZE  25340.47391418  .00006165  00000+0  15828-2 0  9996", "line2": "2 30293  99.2544 170.7977 0076602 133.2769 258.0104 14.48886166988863"}}, "geometry": {"type": "Point", "coordinates": [-9.566512118708822, -9.763716966531996]}}, {"type": "Feature", "properties": {"norad_id": 30294, "name": "FENGYUN 1C DEB", "group": "fengyun-1c-debris", "lat": 10.154830384699459, "lon": -31.494935157350703, "alt_km": 675.910575256853, "timestamp": "2025-12-07T14:37:05.479967+00:00", "meta": {"OBJECT_NAME": "FENGYUN 1C DEB", "OBJECT_ID": "1999-025ZF", "EPOCH": "2025-12-06T22:06:26.888256", "MEAN_MOTION": 14.34921813, "ECCENTRICITY": 0.01979035, "INCLINATION": 98.3552, "RA_OF_ASC_NODE": 329.3473, "ARG_OF_PERICENTER": 327.0999, "MEAN_ANOMALY": 89.994, "EPHEMERIS_TYPE": 0, "CLASSIFICATION_TYPE": "U", "NORAD_CAT_ID": 30294, "ELEMENT_SET_NO": 999, "REV_AT_EPOCH": 98453, "BSTAR": 0.00078543522, "MEAN_MOTION_DOT": 2.738e-05, "MEAN_MOTION_DDOT": 0}, "tle": {"line1": "1 30294U 99025ZF  25340.92114454  .00002738  00000+0  78544-3 0  9997", "line2": "2 30294  98.3552 329.3473 0197903 327.0999  89.9940 14.34921813984535"}}, "geometry": {"type": "Point", "coordinates": [-31.494935157350703, 10.154830384699459]}}]}